OBJECT_NAME,OBJECT_ID,EPOCH,MEAN_MOTION,ECCENTRICITY,INCLINATION,RA_OF_ASC_NODE,ARG_OF_PERICENTER,MEAN_ANOMALY,EPHEMERIS_TYPE,CLASSIFICATION_TYPE,NORAD_CAT_ID,ELEMENT_SET_NO,REV_AT_EPOCH,BSTAR,MEAN_MOTION_DOT,MEAN_MOTION_DDOT
GEOSCAN 3 (RS92S3),2025-155T,2026-06-10T11:30:48.335040,15.35170586,.0005728,97.4530,131.2793,181.9909,178.1312,0,U,64893,999,7982,.46642E-3,.15863E-3,0
INNOSAT 3 (RS92S0),2025-155U,2026-06-10T10:35:11.549760,15.43356014,.0005312,97.4481,132.7777,168.1607,191.9766,0,U,64894,999,7992,.76299E-3,.3406E-3,0
KNACKSAT-2,1998-067XZ,2026-06-09T17:25:01.274016,15.59295239,.0010077,51.6308,331.9912,182.3472,177.7476,0,U,67683,999,1911,.58122E-3,.46495E-3,0
