GEOSCAN 3 (RS92S3)      
1 64893U 25155T   26161.47972610  .00015863  00000+0  46642-3 0  9997
2 64893  97.4530 131.2793 0005728 181.9909 178.1312 15.35170586 79825
INNOSAT 3 (RS92S0)      
1 64894U 25155U   26161.44110590  .00034060  00000+0  76299-3 0  9997
2 64894  97.4481 132.7777 0005312 168.1607 191.9766 15.43356014 79928
KNACKSAT-2              
1 67683U 98067XZ  26160.72570919  .00046495  00000+0  58122-3 0  9993
2 67683  51.6308 331.9912 0010077 182.3472 177.7476 15.59295239 19116
